     2              NAVIGATION DATA                         RINEX VERSION / TYPE
CCRINEXN V1.6.0 UX  CDDIS               22-MAR-17 08:17     PGM / RUN BY / DATE 
IGS BROADCAST EPHEMERIS FILE                                COMMENT             
    0.1118D-07  0.7451D-08 -0.5960D-07 -0.5960D-07          ION ALPHA           
    0.9011D+05  0.1638D+05 -0.1966D+06 -0.6554D+05          ION BETA            
    0.000000000000D+00-0.177635683940D-14   503808     1941 DELTA-UTC: A0,A1,T,W
    18                                                      LEAP SECONDS        
                                                            END OF HEADER       
 8 17  3 22  2  0  0.0-0.535915605724D-04-0.136424205266D-11 0.000000000000D+00
    0.250000000000D+02-0.257500000000D+02 0.466555148180D-08-0.242296688872D+01
   -0.125728547573D-05 0.257664814126D-02 0.415742397308D-05 0.515360629082D+04
    0.266400000000D+06-0.558793544769D-08-0.232664923574D+01 0.838190317154D-07
    0.966111908542D+00 0.303312500000D+03-0.788862404611D+00-0.824355766298D-08
    0.571452374714D-11 0.100000000000D+01 0.194100000000D+04 0.000000000000D+00
    0.200000000000D+01 0.000000000000D+00 0.465661287308D-08 0.250000000000D+02
    0.259200000000D+06 0.400000000000D+01 0.000000000000D+00 0.000000000000D+00
 9 17  3 22  2  0  0.0 0.326946843415D-03 0.773070496507D-11 0.000000000000D+00
    0.800000000000D+01 0.109375000000D+02 0.481448625696D-08-0.290895728330D+01
    0.620260834694D-06 0.886137015186D-03 0.665895640850D-05 0.515366526985D+04
    0.266400000000D+06-0.372529029846D-08 0.814962235363D+00-0.447034835815D-07
    0.953838817295D+00 0.248750000000D+03 0.181674353331D+01-0.816998316973D-08
   -0.100718481043D-09 0.000000000000D+00 0.194100000000D+04 0.000000000000D+00
    0.200000000000D+01 0.000000000000D+00 0.139698386192D-08 0.800000000000D+01
    0.259200000000D+06 0.400000000000D+01 0.000000000000D+00 0.000000000000D+00
11 17  3 22  2  0  0.0-0.676386523992D-03-0.238742359215D-11 0.000000000000D+00
    0.910000000000D+02-0.712500000000D+02 0.620740142033D-08 0.508090779929D+00
   -0.369548797607D-05 0.166315812385D-01 0.633858144283D-05 0.515370267105D+04
    0.266400000000D+06-0.197440385819D-06-0.166175056660D+01-0.106170773506D-06
    0.899782136360D+00 0.230656250000D+03 0.162755934034D+01-0.921288375359D-08
   -0.144648882349D-09 0.100000000000D+01 0.194100000000D+04 0.000000000000D+00
    0.200000000000D+01 0.000000000000D+00-0.121071934700D-07 0.910000000000D+02
    0.261600000000D+06 0.400000000000D+01 0.000000000000D+00 0.000000000000D+00
12 17  3 22  2  0  0.0 0.386689323932D-03-0.568434188608D-12 0.000000000000D+00
    0.750000000000D+02 0.487187500000D+02 0.406445501515D-08-0.982885196199D-01
    0.259838998318D-05 0.658725143876D-02 0.634789466858D-05 0.515356369591D+04
    0.266400000000D+06 0.670552253723D-07 0.297657305556D+01 0.987201929092D-07
    0.989780388463D+00 0.277687500000D+03 0.814033213625D+00-0.797533220460D-08
    0.161078138122D-09 0.100000000000D+01 0.194100000000D+04 0.000000000000D+00
    0.200000000000D+01 0.000000000000D+00-0.121071934700D-07 0.750000000000D+02
    0.259218000000D+06 0.400000000000D+01 0.000000000000D+00 0.000000000000D+00
13 17  3 22  2  0  0.0-0.748313032091D-04-0.159161572810D-11 0.000000000000D+00
    0.920000000000D+02 0.112500000000D+02 0.439625455022D-08 0.153447915287D+01
    0.586733222008D-06 0.398448714986D-02 0.691972672939D-05 0.515368375588D+04
    0.266400000000D+06 0.651925802231D-07 0.940198080510D+00-0.502914190292D-07
    0.969869772043D+00 0.251156250000D+03 0.184089153876D+01-0.799319009131D-08
   -0.975040614355D-10 0.100000000000D+01 0.194100000000D+04 0.000000000000D+00
    0.200000000000D+01 0.000000000000D+00-0.111758708954D-07 0.920000000000D+02
    0.259218000000D+06 0.400000000000D+01 0.000000000000D+00 0.000000000000D+00
14 17  3 22  2  0  0.0-0.637508928776D-04-0.159161572810D-11 0.000000000000D+00
    0.850000000000D+02 0.119375000000D+02 0.447411493627D-08 0.289218129510D+01
    0.599771738052D-06 0.880457507446D-02 0.713579356670D-05 0.515362949371D+04
    0.266400000000D+06 0.763684511185D-07 0.901183581159D+00-0.428408384323D-07
    0.962412943585D+00 0.241687500000D+03-0.195941370174D+01-0.783639784600D-08
   -0.946467995620D-10 0.100000000000D+01 0.194100000000D+04 0.000000000000D+00
    0.200000000000D+01 0.000000000000D+00-0.931322574616D-08 0.850000000000D+02
    0.259200000000D+06 0.400000000000D+01 0.000000000000D+00 0.000000000000D+00
15 17  3 22  2  0  0.0-0.346123706549D-03-0.909494701773D-12 0.000000000000D+00
    0.790000000000D+02 0.104375000000D+02 0.537200948004D-08 0.239083618111D+01
    0.482425093651D-06 0.909772200976D-02 0.669248402119D-05 0.515376014710D+04
    0.266400000000D+06-0.122934579849D-06 0.754999424985D+00-0.968575477600D-07
    0.929518695145D+00 0.235062500000D+03 0.577939450869D+00-0.839356391134D-08
   -0.739316509786D-10 0.100000000000D+01 0.194100000000D+04 0.000000000000D+00
    0.200000000000D+01 0.000000000000D+00-0.107102096081D-07 0.790000000000D+02
    0.259218000000D+06 0.400000000000D+01 0.000000000000D+00 0.000000000000D+00
16 17  3 22  2  0  0.0 0.294870696962D-04 0.909494701773D-12 0.000000000000D+00
    0.720000000000D+02 0.540312500000D+02 0.395837916810D-08-0.207712548857D+01
    0.248476862907D-05 0.931226392277D-02 0.659748911858D-05 0.515366899681D+04
    0.266400000000D+06 0.800937414169D-07 0.299540675947D+01-0.175088644028D-06
    0.990265887086D+00 0.267343750000D+03 0.416099521381D+00-0.785604152138D-08
    0.294655130712D-09 0.100000000000D+01 0.194100000000D+04 0.000000000000D+00
    0.200000000000D+01 0.000000000000D+00-0.107102096081D-07 0.720000000000D+02
    0.259200000000D+06 0.400000000000D+01 0.000000000000D+00 0.000000000000D+00
17 17  3 22  2  0  0.0-0.187104102224D-03 0.136424205266D-11 0.000000000000D+00
    0.820000000000D+02-0.326250000000D+02 0.428160691754D-08-0.308961888127D+01
   -0.158324837685D-05 0.116542180767D-01 0.445917248726D-05 0.515360155487D+04
    0.266400000000D+06 0.223517417908D-06-0.226999381397D+01-0.169500708580D-06
    0.979288923703D+00 0.300031250000D+03-0.185430852223D+01-0.793675916930D-08
   -0.210723063176D-10 0.100000000000D+01 0.194100000000D+04 0.000000000000D+00
    0.280000000000D+01 0.000000000000D+00-0.107102096081D-07 0.820000000000D+02
    0.259200000000D+06 0.400000000000D+01 0.000000000000D+00 0.000000000000D+00
18 17  3 22  2  0  0.0 0.606020446867D-03 0.227373675443D-11 0.000000000000D+00
    0.113000000000D+03 0.887500000000D+01 0.531379276937D-08-0.156997908955D+01
    0.592321157455D-06 0.178159413626D-01 0.833347439766D-05 0.515374514580D+04
    0.266400000000D+06 0.374391674995D-06-0.264976340185D+00 0.368803739548D-06
    0.925828450643D+00 0.198750000000D+03-0.182260107778D+01-0.828677374882D-08
    0.136434254463D-09 0.100000000000D+01 0.194100000000D+04 0.000000000000D+00
    0.200000000000D+01 0.000000000000D+00-0.111758708954D-07 0.113000000000D+03
    0.259200000000D+06 0.400000000000D+01 0.000000000000D+00 0.000000000000D+00
19 17  3 22  2  0  0.0-0.509712379426D-03 0.125055521494D-11 0.000000000000D+00
    0.104000000000D+03-0.301250000000D+02 0.440411202037D-08 0.550171188381D-01
   -0.146776437759D-05 0.101961184991D-01 0.487267971039D-05 0.515365695953D+04
    0.266400000000D+06-0.484287738800D-07-0.222198807820D+01 0.912696123123D-07
    0.976491009490D+00 0.294218750000D+03 0.933313403701D+00-0.829141679936D-08
   -0.600024993449D-10 0.100000000000D+01 0.194100000000D+04 0.000000000000D+00
    0.200000000000D+01 0.000000000000D+00-0.153668224812D-07 0.104000000000D+03
    0.259200000000D+06 0.400000000000D+01 0.000000000000D+00 0.000000000000D+00
20 17  3 22  2  0  0.0 0.465060118586D-03 0.159161572810D-11 0.000000000000D+00
    0.730000000000D+02 0.221875000000D+01 0.531522140031D-08 0.233737190593D+01
    0.838190317154D-07 0.446651934180D-02 0.828318297863D-05 0.515364589882D+04
    0.266400000000D+06 0.875443220139D-07-0.316393855463D+00 0.186264514923D-07
    0.927148406516D+00 0.200750000000D+03 0.157331189050D+01-0.831606068302D-08
    0.166435504135D-09 0.100000000000D+01 0.194100000000D+04 0.000000000000D+00
    0.200000000000D+01 0.000000000000D+00-0.838190317154D-08 0.730000000000D+02
    0.259218000000D+06 0.400000000000D+01 0.000000000000D+00 0.000000000000D+00
21 17  3 22  2  0  0.0-0.516245141625D-03 0.181898940355D-11 0.000000000000D+00
    0.104000000000D+03-0.582500000000D+02 0.513592821774D-08-0.668662063933D+00
   -0.296533107758D-05 0.240062541561D-01 0.891648232937D-05 0.515371925736D+04
    0.266400000000D+06-0.305473804474D-06-0.130584481672D+01 0.176951289177D-06
    0.938830894327D+00 0.198812500000D+03-0.169422088479D+01-0.880179520153D-08
    0.221437795202D-10 0.100000000000D+01 0.194100000000D+04 0.000000000000D+00
    0.290000000000D+01 0.000000000000D+00-0.977888703346D-08 0.104000000000D+03
    0.259200000000D+06 0.400000000000D+01 0.000000000000D+00 0.000000000000D+00
22 17  3 22  2  0  0.0 0.657453201711D-04-0.118234311230D-10 0.000000000000D+00
    0.880000000000D+02-0.346875000000D+01 0.533093634061D-08 0.272713465503D+01
   -0.244006514549D-06 0.751657027286D-02 0.862404704094D-05 0.515356042290D+04
    0.266400000000D+06 0.856816768646D-07-0.264984665652D+00-0.819563865662D-07
    0.923841689395D+00 0.190093750000D+03-0.178459192061D+01-0.823534303509D-08
    0.156435087578D-09 0.100000000000D+01 0.194100000000D+04 0.000000000000D+00
    0.200000000000D+01 0.000000000000D+00-0.176951289177D-07 0.880000000000D+02
    0.259200000000D+06 0.400000000000D+01 0.000000000000D+00 0.000000000000D+00
